{"type":"FeatureCollection","crs":{"type":"name","properties":{"name":"EPSG:4326"}},"features":[{"type":"Feature","geometry":{"type":"Polygon","coordinates":[[[-8.67,27.67],[-8.67,26],[-12,26],[-12,23.45],[-12.58,23.27],[-13.11,22.94],[-13.15,22.76],[-13,21.33],[-16.95,21.33],[-17.05,20.77],[-17.1,20.84],[-16.97,21.8],[-16.76,22.22],[-16.49,22.33],[-16.29,22.9],[-16.14,23.01],[-16.2,23.1],[-15.71,23.82],[-15.77,23.92],[-16.01,23.65],[-15.84,23.89],[-14.88,24.7],[-14.83,25.3],[-14.48,26.18],[-14.18,26.43],[-13.97,26.47],[-13.57,26.74],[-13.17,27.67],[-8.67,27.67]]]},"properties":{"NAM_0":"Western Sahara"}},{"type":"Feature","geometry":{"type":"Polygon","coordinates":[[[114.09,10.95],[114.07,10.91],[114.06,10.91],[114.09,10.95]]]},"properties":{"NAM_0":"Spratly Islands"}},{"type":"Feature","geometry":{"type":"Polygon","coordinates":[[[35.67,32.69],[35.63,33.01],[35.67,33.25],[35.77,33.33],[35.9,32.95],[35.67,32.69]]]},"properties":{"NAM_0":"Disputed Area, Israel/Lebanon/Syria, Golan Heights"}},{"type":"Feature","geometry":{"type":"Polygon","coordinates":[[[35.67,33.25],[35.62,33.27],[35.74,33.32],[35.67,33.25]]]},"properties":{"NAM_0":"Disputed Area, Israel/Lebanon/Syria, Golan Heights"}},{"type":"Feature","geometry":{"type":"Polygon","coordinates":[[[35.62,33.27],[35.64,33.28],[35.62,33.27],[35.62,33.27]]]},"properties":{"NAM_0":"Disputed Area, Israel/Lebanon/Syria, Golan Heights"}},{"type":"Feature","geometry":{"type":"Polygon","coordinates":[[[-75.03,18.41],[-75.01,18.41],[-75.02,18.39],[-75.03,18.41]]]},"properties":{"NAM_0":"Navassa Island"}},{"type":"Feature","geometry":{"type":"Polygon","coordinates":[[[-70.9,12.36],[-70.9,12.36],[-70.9,12.36],[-70.9,12.36]]]},"properties":{"NAM_0":"Los Monjes"}},{"type":"Feature","geometry":{"type":"Polygon","coordinates":[[[112.35,16.85],[112.34,16.83],[112.33,16.84],[112.35,16.85]]]},"properties":{"NAM_0":"Paracels Islands"}},{"type":"Feature","geometry":{"type":"Polygon","coordinates":[[[123.48,25.75],[123.46,25.73],[123.46,25.74],[123.48,25.75]]]},"properties":{"NAM_0":"Senkaku Islands"}},{"type":"Feature","geometry":{"type":"Polygon","coordinates":[[[116.72,20.71],[116.73,20.7],[116.73,20.7],[116.72,20.71]]]},"properties":{"NAM_0":"Pratas Island"}},{"type":"Feature","geometry":{"type":"Polygon","coordinates":[[[-67.1,44.5],[-67.1,44.5],[-67.1,44.5],[-67.1,44.5]]]},"properties":{"NAM_0":"Machias Seal Island"}},{"type":"Feature","geometry":{"type":"Polygon","coordinates":[[[92.12,26.89],[92.02,27.11],[92.05,27.27],[92.12,27.28],[92.02,27.48],[91.65,27.49],[91.56,27.64],[91.64,27.76],[91.93,27.72],[92.24,27.89],[92.32,27.8],[92.45,27.8],[92.73,27.98],[92.68,28.15],[92.93,28.21],[93.25,28.54],[93.43,28.66],[93.71,28.66],[94.02,28.79],[94.37,29.02],[94.29,29.15],[94.69,29.32],[94.81,29.16],[95.27,29.07],[95.43,29.19],[95.51,29.13],[95.61,29.24],[95.71,29.2],[95.81,29.35],[96.05,29.38],[96.26,29.25],[96.45,28.94],[96.53,28.93],[96.65,28.62],[96.93,28.35],[97.13,28.36],[97.36,28.2],[97.31,28.06],[97.38,27.89],[97.24,27.9],[97.09,27.73],[96.45,28.15],[96.29,28.14],[96.25,28.25],[96.01,28.19],[95.82,28.3],[95.37,28.13],[95.28,27.94],[94.86,27.74],[94.27,27.59],[93.86,27.19],[93.8,27.01],[93.07,26.89],[92.66,26.96],[92.12,26.89]]]},"properties":{"NAM_0":"Arunchal Pradesh"}},{"type":"Feature","geometry":{"type":"Polygon","coordinates":[[[75.95,36.6],[76.28,36.31],[76.78,36.09],[76.81,36.01],[76.73,35.97],[76.81,35.86],[77.01,35.73],[77.4,35.71],[77.47,35.56],[77.2,35.52],[76.76,35.66],[76.59,35.77],[76.58,35.92],[76.15,35.84],[76.1,36.02],[75.94,36.07],[76.06,36.24],[75.95,36.6]]]},"properties":{"NAM_0":"Disputed - India/Pakistan"}},{"type":"Feature","geometry":{"type":"Polygon","coordinates":[[[80.64,30.45],[81.04,30.21],[80.86,30.17],[80.61,30.44],[80.54,30.42],[80.64,30.45]]]},"properties":{"NAM_0":"Kalapani"}},{"type":"Feature","geometry":{"type":"Polygon","coordinates":[[[79.7,30.97],[79.85,30.98],[80.25,30.72],[80.15,30.65],[79.7,30.97]]]},"properties":{"NAM_0":"Disputed Area - China-India"}},{"type":"Feature","geometry":{"type":"Polygon","coordinates":[[[78.88,31.29],[79.1,31.45],[79.41,31.07],[79.32,30.96],[79.09,30.99],[78.88,31.29]]]},"properties":{"NAM_0":"Disputed Area - China-India"}},{"type":"Feature","geometry":{"type":"Polygon","coordinates":[[[78.74,31.89],[78.71,31.77],[78.66,31.79],[78.74,31.89]]]},"properties":{"NAM_0":"Disputed Area - China-India"}},{"type":"Feature","geometry":{"type":"Polygon","coordinates":[[[78.49,32.27],[78.76,31.95],[78.46,32.14],[78.49,32.27]]]},"properties":{"NAM_0":"Disputed Area - China-India"}},{"type":"Feature","geometry":{"type":"Polygon","coordinates":[[[78.63,32.63],[78.64,32.61],[78.57,32.62],[78.63,32.63]]]},"properties":{"NAM_0":"Disputed - India/Pakistan"}},{"type":"Feature","geometry":{"type":"Polygon","coordinates":[[[78.74,32.7],[78.66,32.66],[78.71,32.7],[78.74,32.7]]]},"properties":{"NAM_0":"Disputed - India/Pakistan"}},{"type":"Feature","geometry":{"type":"Polygon","coordinates":[[[79.15,33.18],[79.22,33.24],[79.41,33.19],[79.34,32.99],[79.56,32.71],[79.4,32.53],[79.28,32.56],[79.3,32.72],[79.22,32.79],[79.24,32.94],[79.14,33.03],[79.15,33.18]]]},"properties":{"NAM_0":"Disputed - India/Pakistan"}},{"type":"Feature","geometry":{"type":"Polygon","coordinates":[[[77.92,35.5],[77.97,35.57],[78.16,35.55],[78.25,35.73],[78.8,35.87],[78.86,35.97],[79.03,35.92],[79.34,35.99],[79.45,35.96],[79.47,35.86],[79.59,35.88],[79.71,35.64],[80,35.6],[80.06,35.42],[80.21,35.57],[80.42,35.45],[80.29,35.36],[80.2,35.12],[80.21,34.9],[80.07,34.71],[79.79,34.63],[79.8,34.48],[79.52,34.46],[79.61,34.25],[79.41,34.1],[79.41,34.01],[78.9,34],[79.09,33.64],[78.91,33.62],[78.94,33.39],[78.73,33.57],[78.76,33.91],[78.66,34.08],[78.93,34.15],[79.04,34.34],[78.71,34.53],[78.29,34.62],[78.2,34.74],[78.2,34.97],[78,35.24],[78.11,35.48],[77.92,35.5]]]},"properties":{"NAM_0":"Disputed - India/Pakistan"}},{"type":"Feature","geometry":{"type":"MultiPolygon","coordinates":[[[[146.1,43.45],[146.09,43.42],[146.03,43.41],[146.1,43.45]]],[[[145.89,43.46],[145.95,43.42],[145.9,43.43],[145.89,43.46]]],[[[146.13,43.46],[146.07,43.53],[146.2,43.53],[146.13,43.46]]],[[[146.31,43.65],[146.36,43.62],[146.3,43.63],[146.31,43.65]]],[[[146.81,43.79],[146.64,43.7],[146.59,43.81],[146.84,43.89],[146.92,43.83],[146.81,43.79]]],[[[146.17,44.52],[146.35,44.42],[146.55,44.43],[146.53,44.38],[146.11,44.26],[145.79,43.95],[145.59,43.87],[145.55,43.67],[145.56,43.73],[145.43,43.72],[145.41,43.84],[145.74,44.05],[146.17,44.52]]],[[[148.79,45.56],[148.89,45.51],[148.84,45.34],[148.32,45.22],[147.91,44.96],[147.65,44.99],[147.6,44.85],[147.21,44.57],[147.08,44.56],[146.95,44.43],[146.86,44.45],[146.93,44.61],[147.19,44.71],[147.11,44.82],[147.24,44.81],[147.52,45],[147.53,45.1],[147.64,45.07],[147.87,45.22],[147.9,45.43],[148.03,45.27],[148.21,45.26],[148.79,45.56]]]]},"properties":{"NAM_0":"Kuril Islands"}},{"type":"Feature","geometry":{"type":"MultiPolygon","coordinates":[[[[131.87,37.24],[131.87,37.24],[131.87,37.24],[131.87,37.24]]],[[[131.86,37.25],[131.86,37.25],[131.86,37.25],[131.86,37.25]]]]},"properties":{"NAM_0":"Dokdo islands"}},{"type":"Feature","geometry":{"type":"Polygon","coordinates":[[[-66.45,80.83],[-66.45,80.82],[-66.49,80.82],[-66.45,80.83]]]},"properties":{"NAM_0":"Hans Island"}},{"type":"Feature","geometry":{"type":"MultiPolygon","coordinates":[[[[-27.16,-59.43],[-27.14,-59.46],[-27.25,-59.45],[-27.16,-59.43]]],[[[-27.31,-59.46],[-27.41,-59.44],[-27.34,-59.41],[-27.31,-59.46]]],[[[-26.51,-58.99],[-26.44,-59.02],[-26.52,-59.06],[-26.63,-59.01],[-26.51,-58.99]]],[[[-26.36,-58.4],[-26.28,-58.42],[-26.27,-58.51],[-26.48,-58.46],[-26.36,-58.4]]],[[[-26.46,-57.78],[-26.39,-57.81],[-26.54,-57.81],[-26.46,-57.78]]],[[[-26.72,-57.08],[-26.69,-57.11],[-26.75,-57.09],[-26.72,-57.08]]],[[[-27.21,-56.68],[-27.13,-56.71],[-27.26,-56.72],[-27.21,-56.68]]],[[[-27.57,-56.28],[-27.55,-56.31],[-27.59,-56.31],[-27.57,-56.28]]],[[[-35.78,-54.8],[-35.78,-54.82],[-35.8,-54.82],[-35.78,-54.8]]],[[[-37.09,-54.47],[-37.03,-54.5],[-37.08,-54.5],[-37.09,-54.47]]],[[[-37.73,-53.98],[-37.37,-53.99],[-37.48,-54.06],[-37.15,-54.05],[-37.16,-54.12],[-36.99,-54.06],[-37.05,-54.14],[-36.89,-54.08],[-36.81,-54.15],[-36.64,-54.12],[-36.71,-54.19],[-36.49,-54.18],[-36.71,-54.25],[-36.49,-54.24],[-36.51,-54.36],[-36.43,-54.32],[-36.35,-54.37],[-36.39,-54.25],[-36.26,-54.29],[-36.25,-54.39],[-36.05,-54.47],[-36.12,-54.58],[-35.9,-54.55],[-35.96,-54.73],[-35.79,-54.77],[-36.07,-54.8],[-35.94,-54.85],[-36.13,-54.88],[-36.51,-54.51],[-36.79,-54.46],[-36.86,-54.35],[-37.01,-54.36],[-37.23,-54.24],[-37.42,-54.28],[-37.33,-54.22],[-37.41,-54.19],[-37.24,-54.15],[-37.62,-54.19],[-37.72,-54.1],[-37.61,-54.04],[-38.01,-54.06],[-37.73,-53.98]]]]},"properties":{"NAM_0":"S. Georgia and South Sandwich Islands"}},{"type":"Feature","geometry":{"type":"MultiPolygon","coordinates":[[[[-59.07,-52.42],[-59.11,-52.45],[-59.15,-52.44],[-59.07,-52.42]]],[[[-59.66,-52.35],[-59.7,-52.4],[-59.74,-52.39],[-59.66,-52.35]]],[[[-59.68,-52.3],[-59.76,-52.38],[-59.81,-52.36],[-59.68,-52.3]]],[[[-59.78,-52.14],[-59.68,-52.19],[-59.74,-52.29],[-59.78,-52.14]]],[[[-58.83,-52.14],[-58.86,-52.22],[-59,-52.23],[-58.83,-52.14]]],[[[-59.72,-52.04],[-59.72,-52.08],[-59.75,-52.08],[-59.72,-52.04]]],[[[-58.43,-51.99],[-58.43,-52.1],[-58.55,-52.02],[-58.43,-51.99]]],[[[-60.88,-51.96],[-60.85,-52.01],[-60.92,-51.99],[-60.88,-51.96]]],[[[-59.69,-51.93],[-59.67,-51.98],[-59.7,-51.99],[-59.69,-51.93]]],[[[-61.23,-51.8],[-61.24,-51.88],[-61.35,-51.82],[-61.23,-51.8]]],[[[-60.9,-51.76],[-60.91,-51.96],[-61,-51.99],[-61.13,-51.9],[-61.13,-51.82],[-60.98,-51.78],[-60.94,-51.82],[-61.03,-51.86],[-60.98,-51.87],[-60.9,-51.76]]],[[[-59.54,-51.76],[-59.56,-51.8],[-59.63,-51.8],[-59.54,-51.76]]],[[[-61.26,-51.68],[-61.3,-51.76],[-61.33,-51.7],[-61.26,-51.68]]],[[[-60.81,-51.57],[-60.75,-51.59],[-60.8,-51.58],[-60.81,-51.57]]],[[[-60.73,-51.46],[-60.69,-51.48],[-60.7,-51.48],[-60.73,-51.46]]],[[[-59.6,-51.4],[-59.59,-51.43],[-59.64,-51.42],[-59.6,-51.4]]],[[[-59.72,-51.39],[-59.68,-51.41],[-59.71,-51.42],[-59.72,-51.39]]],[[[-59.39,-51.34],[-59.21,-51.41],[-59.86,-51.96],[-60.24,-51.99],[-60.33,-52.15],[-60.65,-52.26],[-60.72,-52.11],[-60.85,-52.12],[-60.73,-52.18],[-60.79,-52.19],[-61.05,-52.07],[-61.03,-52.01],[-60.74,-52.02],[-60.84,-51.96],[-60.45,-51.97],[-60.54,-51.94],[-60.45,-51.78],[-60.37,-51.86],[-60.31,-51.76],[-60.2,-51.77],[-60.18,-51.71],[-60.25,-51.7],[-60.57,-51.8],[-60.65,-51.67],[-60.06,-51.7],[-60.5,-51.52],[-60.38,-51.49],[-60.67,-51.36],[-60.1,-51.5],[-59.99,-51.48],[-60.09,-51.45],[-60.01,-51.38],[-59.74,-51.41],[-59.79,-51.46],[-59.5,-51.39],[-59.6,-51.45],[-59.47,-51.46],[-59.39,-51.34]]],[[[-59.71,-51.33],[-59.67,-51.34],[-59.67,-51.36],[-59.71,-51.33]]],[[[-60.73,-51.33],[-60.67,-51.35],[-60.69,-51.37],[-60.73,-51.33]]],[[[-59.75,-51.32],[-59.71,-51.36],[-59.77,-51.35],[-59.75,-51.32]]],[[[-59.95,-51.29],[-59.95,-51.36],[-60.04,-51.32],[-59.95,-51.29]]],[[[-60.28,-51.26],[-60.04,-51.33],[-60.28,-51.41],[-60.23,-51.34],[-60.12,-51.37],[-60.28,-51.26]]],[[[-59.75,-51.25],[-59.47,-51.31],[-59.59,-51.34],[-59.83,-51.27],[-59.75,-51.25]]],[[[-60.6,-51.25],[-60.55,-51.28],[-60.56,-51.3],[-60.6,-51.25]]],[[[-58.97,-51.23],[-58.63,-51.35],[-58.41,-51.32],[-58.34,-51.45],[-58.51,-51.39],[-58.54,-51.49],[-58.28,-51.55],[-58.23,-51.65],[-58.22,-51.53],[-58.38,-51.51],[-58.3,-51.42],[-57.92,-51.37],[-57.77,-51.5],[-57.88,-51.51],[-57.76,-51.54],[-58.16,-51.55],[-57.77,-51.62],[-57.91,-51.69],[-57.73,-51.68],[-58.24,-51.77],[-58.19,-51.83],[-58.45,-51.93],[-58.96,-51.81],[-58.99,-51.86],[-58.62,-51.98],[-58.66,-52.12],[-58.75,-52.05],[-58.93,-52.11],[-59.24,-52.01],[-59.1,-52.08],[-59.15,-52.15],[-59.03,-52.16],[-59.07,-52.24],[-59.44,-52.15],[-59.34,-52.24],[-59.36,-52.36],[-59.73,-52.13],[-59.57,-52.06],[-59.64,-52.02],[-59.56,-51.97],[-59.59,-51.9],[-59.48,-51.93],[-59.5,-51.84],[-59.09,-51.69],[-59.05,-51.83],[-58.97,-51.78],[-59.02,-51.66],[-59.18,-51.59],[-59.11,-51.53],[-59.03,-51.58],[-59.02,-51.5],[-59.14,-51.47],[-59.1,-51.41],[-58.86,-51.35],[-58.97,-51.23]]],[[[-61.12,-51.02],[-61.07,-51.07],[-61.13,-51.07],[-61.12,-51.02]]],[[[-61.26,-51.01],[-61.23,-51.02],[-61.25,-51.03],[-61.26,-51.01]]]]},"properties":{"NAM_0":"Falkland Islands"}},{"type":"Feature","geometry":{"type":"Polygon","coordinates":[[[27.91,9.61],[27.83,10.17],[29,10.17],[29,9.67],[28.8,9.5],[28.74,9.35],[28.04,9.35],[27.91,9.61]]]},"properties":{"NAM_0":"Abyei"}},{"type":"Feature","geometry":{"type":"MultiPolygon","coordinates":[[[[34.01,35.06],[33.9,35.07],[33.96,35.08],[34.01,35.06]]],[[[32.59,35.18],[32.64,35.19],[32.62,35.16],[32.59,35.18]]],[[[33.71,35],[33.44,34.99],[33.4,35.18],[32.86,35.07],[32.69,35.18],[32.85,35.08],[33.4,35.2],[33.47,35.01],[33.53,35.08],[33.71,35]]]]},"properties":{"NAM_0":"UN Buffer Zone in Cyprus"}},{"type":"Feature","geometry":{"type":"Polygon","coordinates":[[[34.96,31.86],[35.03,31.87],[34.99,31.97],[35.04,31.91],[34.98,31.83],[35.1,31.83],[34.96,31.86]]]},"properties":{"NAM_0":"West Bank and Gaza"}},{"type":"Feature","geometry":{"type":"MultiPolygon","coordinates":[[[[166.87,-77.01],[167,-77.04],[166.9,-77.06],[166.87,-77.01]]],[[[168.32,-76.13],[168.4,-76.17],[168.32,-76.22],[168.19,-76.12],[168.32,-76.13]]],[[[-140.34,-74.83],[-140.28,-74.86],[-140.38,-74.86],[-140.34,-74.83]]],[[[-132.22,-74.23],[-132.12,-74.26],[-132.25,-74.27],[-132.22,-74.23]]],[[[-103.4,-74.21],[-103.46,-74.23],[-103.48,-74.21],[-103.4,-74.21]]],[[[-105.21,-74.16],[-105.17,-74.17],[-105.28,-74.17],[-105.21,-74.16]]],[[[169.79,-73.43],[169.96,-73.62],[169.9,-73.72],[169.46,-73.66],[169.61,-73.58],[169.66,-73.45],[169.79,-73.43]]],[[[-104.69,-73.32],[-105.01,-73.27],[-105.16,-73.11],[-104.98,-73.05],[-104.74,-73.15],[-104.53,-73.27],[-104.69,-73.32]]],[[[163.51,-70.45],[163.47,-70.5],[163.33,-70.48],[163.51,-70.45]]],[[[161.87,-70.38],[161.84,-70.34],[161.9,-70.35],[161.87,-70.38]]],[[[-74.95,-69.84],[-74.44,-70.05],[-74.41,-70.1],[-74.56,-70.18],[-74.46,-70.27],[-75.66,-70.25],[-75.84,-70.14],[-75.72,-70],[-75.35,-69.96],[-75.44,-69.89],[-74.95,-69.84]]],[[[30.42,-69.39],[30.4,-69.37],[30.45,-69.36],[30.42,-69.39]]],[[[-68.3,-69.36],[-68.26,-69.38],[-68.34,-69.36],[-68.3,-69.36]]],[[[-68.48,-69.32],[-68.49,-69.35],[-68.55,-69.33],[-68.48,-69.32]]],[[[39.58,-69.13],[39.55,-69.16],[39.49,-69.16],[39.58,-69.13]]],[[[77.68,-68.95],[77.74,-68.95],[77.68,-68.97],[77.68,-68.95]]],[[[77.87,-68.92],[77.9,-68.94],[77.8,-68.94],[77.87,-68.92]]],[[[-90.68,-68.89],[-90.42,-69],[-90.67,-69.05],[-90.73,-68.94],[-90.68,-68.89]]],[[[78.22,-68.63],[78.13,-68.65],[78.14,-68.63],[78.22,-68.63]]],[[[-67.21,-68.26],[-67.18,-68.3],[-67.28,-68.28],[-67.21,-68.26]]],[[[-66.92,-67.98],[-66.87,-68.01],[-67.05,-68.01],[-66.92,-67.98]]],[[[-66.92,-67.93],[-66.98,-67.97],[-67,-67.95],[-66.92,-67.93]]],[[[-67.23,-67.93],[-67.09,-67.97],[-67.25,-68.03],[-67.3,-68.01],[-67.24,-67.96],[-67.31,-67.96],[-67.23,-67.93]]],[[[-68.36,-67.86],[-68.35,-67.87],[-68.42,-67.86],[-68.36,-67.86]]],[[[-67.02,-67.78],[-67.06,-67.83],[-67.17,-67.85],[-67.02,-67.78]]],[[[-67.24,-67.71],[-67.12,-67.77],[-67.44,-67.92],[-67.68,-67.91],[-67.74,-67.86],[-67.65,-67.83],[-67.77,-67.81],[-67.24,-67.71]]],[[[-67.09,-67.63],[-66.82,-67.66],[-67.17,-67.73],[-67.22,-67.68],[-67.09,-67.63]]],[[[61.14,-67.6],[61.16,-67.62],[61.1,-67.62],[61.14,-67.6]]],[[[59.4,-67.48],[59.42,-67.5],[59.36,-67.49],[59.4,-67.48]]],[[[-67.62,-67.44],[-67.63,-67.48],[-67.75,-67.49],[-67.62,-67.44]]],[[[164.89,-67.71],[164.65,-67.7],[164.65,-67.55],[164.56,-67.44],[164.72,-67.42],[164.91,-67.54],[164.89,-67.71]]],[[[59.32,-67.39],[59.52,-67.46],[59.34,-67.46],[59.32,-67.39]]],[[[-67.63,-67.33],[-67.59,-67.35],[-67.66,-67.41],[-67.82,-67.4],[-67.63,-67.33]]],[[[58.84,-67.24],[58.77,-67.26],[58.77,-67.23],[58.84,-67.24]]],[[[58.6,-67.22],[58.74,-67.25],[58.6,-67.27],[58.6,-67.22]]],[[[50.28,-67.22],[50.34,-67.24],[50.32,-67.26],[50.28,-67.22]]],[[[-67.56,-67.18],[-67.58,-67.27],[-67.68,-67.27],[-67.56,-67.18]]],[[[-67.79,-67.1],[-67.71,-67.1],[-67.74,-67.12],[-67.79,-67.1]]],[[[-66.97,-67.03],[-66.94,-67.06],[-66.99,-67.06],[-66.97,-67.03]]],[[[-66.69,-67.01],[-66.65,-67.03],[-66.72,-67.02],[-66.69,-67.01]]],[[[-67.44,-66.87],[-67.23,-66.98],[-67.41,-67.05],[-67.6,-67.02],[-67.44,-66.87]]],[[[163.14,-66.83],[163.28,-66.86],[163.3,-67.02],[163.21,-67.01],[163.14,-66.83]]],[[[48.77,-66.84],[48.82,-66.89],[48.75,-66.93],[48.28,-66.92],[48.37,-66.84],[48.77,-66.84]]],[[[-67.72,-66.76],[-67.66,-66.78],[-67.7,-66.86],[-67.95,-66.96],[-68.02,-67.08],[-67.92,-67.15],[-67.96,-67.2],[-67.68,-67.29],[-68.24,-67.5],[-67.95,-67.54],[-68.05,-67.65],[-68.42,-67.69],[-68.41,-67.8],[-68.57,-67.89],[-68.91,-67.9],[-69.2,-67.67],[-68.33,-66.92],[-67.72,-66.76]]],[[[162.83,-66.69],[162.8,-66.72],[162.78,-66.69],[162.83,-66.69]]],[[[110.39,-66.54],[110.44,-66.56],[110.4,-66.57],[110.39,-66.54]]],[[[-65.91,-66.52],[-65.94,-66.54],[-65.97,-66.53],[-65.91,-66.52]]],[[[-67.2,-66.51],[-67.18,-66.53],[-67.27,-66.55],[-67.2,-66.51]]],[[[-67.12,-66.46],[-67.03,-66.51],[-67.17,-66.53],[-67.12,-66.46]]],[[[162.38,-66.43],[162.71,-66.64],[162.63,-66.71],[162.49,-66.64],[162.32,-66.48],[162.38,-66.43]]],[[[-67.17,-66.38],[-67.13,-66.4],[-67.17,-66.42],[-67.17,-66.38]]],[[[-67.06,-66.38],[-66.89,-66.41],[-66.98,-66.44],[-67.06,-66.38]]],[[[-65.74,-66.26],[-65.68,-66.27],[-65.7,-66.28],[-65.74,-66.26]]],[[[-66.63,-66.2],[-66.56,-66.23],[-66.61,-66.35],[-66.92,-66.45],[-66.75,-66.33],[-66.79,-66.26],[-66.63,-66.2]]],[[[-65.77,-66.09],[-65.74,-66.13],[-65.8,-66.14],[-65.77,-66.09]]],[[[-65.9,-66.02],[-65.93,-66.06],[-66.01,-66.07],[-65.9,-66.02]]],[[[-65.31,-65.97],[-65.2,-66.02],[-65.29,-66.04],[-65.31,-65.97]]],[[[92.41,-65.83],[92.69,-65.91],[92.26,-65.93],[92.28,-65.86],[92.41,-65.83]]],[[[-65.23,-65.79],[-65.19,-65.8],[-65.23,-65.83],[-65.23,-65.79]]],[[[-64.53,-65.75],[-64.5,-65.79],[-64.54,-65.8],[-64.53,-65.75]]],[[[-64.41,-65.67],[-64.31,-65.7],[-64.39,-65.7],[-64.41,-65.67]]],[[[-65.77,-65.67],[-65.65,-65.69],[-65.66,-65.82],[-65.88,-65.82],[-65.85,-65.97],[-66.18,-66.02],[-65.97,-65.73],[-65.77,-65.67]]],[[[-65.57,-65.6],[-65.59,-65.65],[-65.69,-65.66],[-65.57,-65.6]]],[[[-64.07,-65.24],[-64.07,-65.27],[-64.11,-65.29],[-64.07,-65.24]]],[[[-59.52,-65.24],[-59.59,-65.25],[-59.55,-65.22],[-59.52,-65.24]]],[[[-63.94,-65.19],[-64,-65.26],[-64.01,-65.21],[-63.94,-65.19]]],[[[-63.11,-64.99],[-62.93,-65.03],[-63.1,-65.04],[-63.11,-64.99]]],[[[-63.57,-64.98],[-63.48,-64.99],[-63.53,-65.01],[-63.57,-64.98]]],[[[-62.98,-64.94],[-62.86,-64.96],[-62.96,-64.97],[-62.98,-64.94]]],[[[-63.18,-64.86],[-63.32,-65.02],[-63.6,-65.05],[-63.18,-64.86]]],[[[-62.66,-64.82],[-62.66,-64.89],[-62.77,-64.86],[-62.66,-64.82]]],[[[-62.05,-64.69],[-62.06,-64.75],[-62.16,-64.73],[-62.05,-64.69]]],[[[-57.56,-64.58],[-57.59,-64.61],[-57.65,-64.6],[-57.56,-64.58]]],[[[-62.85,-64.54],[-62.85,-64.57],[-62.91,-64.55],[-62.85,-64.54]]],[[[-61.54,-64.5],[-61.49,-64.54],[-61.59,-64.54],[-61.54,-64.5]]],[[[-56.91,-64.48],[-57.01,-64.63],[-57.25,-64.72],[-57.48,-64.64],[-56.91,-64.48]]],[[[-62.94,-64.47],[-62.94,-64.5],[-62.96,-64.48],[-62.94,-64.47]]],[[[-63.36,-64.4],[-63.16,-64.46],[-63.37,-64.59],[-63.16,-64.54],[-63.25,-64.62],[-63.11,-64.61],[-63.3,-64.71],[-63,-64.66],[-62.85,-64.73],[-63.2,-64.8],[-63.35,-64.92],[-63.56,-64.88],[-63.69,-65],[-64.3,-64.86],[-64.2,-64.74],[-63.88,-64.68],[-63.92,-64.61],[-63.66,-64.57],[-63.68,-64.47],[-63.36,-64.4]]],[[[-62,-64.39],[-62.05,-64.43],[-62.1,-64.42],[-62,-64.39]]],[[[-56.62,-64.36],[-56.7,-64.46],[-56.88,-64.47],[-56.62,-64.36]]],[[[-61,-64.34],[-61,-64.35],[-61.05,-64.34],[-61,-64.34]]],[[[-61.72,-64.25],[-61.67,-64.32],[-61.75,-64.31],[-61.72,-64.25]]],[[[-62.46,-64.16],[-62.03,-64.29],[-62.21,-64.33],[-62.07,-64.36],[-62.37,-64.61],[-62.78,-64.65],[-62.66,-64.63],[-62.69,-64.56],[-62.46,-64.38],[-62.62,-64.27],[-62.51,-64.25],[-62.57,-64.2],[-62.46,-64.16]]],[[[-61.83,-64.11],[-61.91,-64.21],[-62.07,-64.22],[-61.83,-64.11]]],[[[-61.4,-64.06],[-61.43,-64.11],[-61.49,-64.1],[-61.4,-64.06]]],[[[-57.34,-63.94],[-57.06,-63.99],[-57.24,-64.06],[-57.62,-64.06],[-57.7,-63.97],[-57.34,-63.94]]],[[[-57.78,-63.94],[-57.77,-64.05],[-57.88,-64.13],[-57.81,-64.24],[-57.51,-64.08],[-57.51,-64.17],[-57.16,-64.23],[-57.22,-64.32],[-57.06,-64.33],[-57.4,-64.43],[-57.32,-64.53],[-57.79,-64.49],[-57.98,-64.6],[-58.03,-64.51],[-58.23,-64.52],[-58.31,-64.48],[-58.12,-64.39],[-58.19,-64.34],[-58.03,-64.23],[-58.32,-64.3],[-58.43,-64.29],[-58.45,-64.22],[-58.19,-64.13],[-58.31,-64.08],[-57.78,-63.94]]],[[[-61.71,-63.87],[-61.63,-63.94],[-61.72,-63.92],[-61.71,-63.87]]],[[[-57.51,-63.85],[-57.52,-63.88],[-57.59,-63.87],[-57.51,-63.85]]],[[[-60.78,-63.82],[-60.56,-63.86],[-60.7,-63.95],[-60.64,-64.01],[-60.83,-64.07],[-60.88,-64],[-60.7,-63.9],[-60.78,-63.82]]],[[[-57.42,-63.78],[-57.45,-63.85],[-57.57,-63.79],[-57.42,-63.78]]],[[[-56.56,-63.71],[-56.52,-63.76],[-56.69,-63.75],[-56.56,-63.71]]],[[[-59.83,-63.7],[-59.77,-63.74],[-59.87,-63.74],[-59.83,-63.7]]],[[[-56.69,-63.68],[-56.65,-63.69],[-56.7,-63.71],[-56.69,-63.68]]],[[[-55.99,-63.55],[-55.76,-63.58],[-55.72,-63.66],[-55.97,-63.74],[-56.14,-63.7],[-56.26,-63.64],[-55.99,-63.55]]],[[[-58.68,-63.44],[-58.66,-63.49],[-58.74,-63.47],[-58.68,-63.44]]],[[[-62.21,-63.39],[-61.95,-63.47],[-62.28,-63.51],[-62.21,-63.39]]],[[[-57.3,-63.37],[-57.04,-63.42],[-57,-63.52],[-57.06,-63.57],[-56.95,-63.55],[-57,-63.62],[-56.77,-63.69],[-56.77,-63.76],[-57.14,-63.81],[-57.14,-63.64],[-57.45,-63.6],[-57.47,-63.69],[-57.38,-63.71],[-57.73,-63.71],[-57.63,-63.78],[-58.28,-63.88],[-58.48,-64.07],[-58.69,-64.14],[-58.81,-64.37],[-59.03,-64.31],[-59.19,-64.39],[-58.76,-64.43],[-58.94,-64.51],[-58.75,-64.6],[-58.82,-64.71],[-58.99,-64.67],[-59.03,-64.57],[-59.37,-64.58],[-59.49,-64.46],[-59.68,-64.55],[-59.54,-64.69],[-59.59,-64.75],[-59.78,-64.72],[-59.74,-64.58],[-59.96,-64.52],[-60.01,-64.62],[-60.45,-64.73],[-60.37,-64.8],[-60.74,-64.87],[-60.7,-64.94],[-60.88,-65.03],[-60.83,-65.07],[-60.09,-65.11],[-60.02,-65.21],[-59.63,-65.26],[-59.45,-65.4],[-60.2,-65.23],[-60.93,-65.24],[-61.16,-65.14],[-61.4,-65.2],[-61.68,-65.1],[-61.77,-65.13],[-61.79,-65.23],[-61.57,-65.27],[-61.6,-65.39],[-62.14,-65.33],[-62.02,-65.41],[-62.33,-65.48],[-62.01,-65.52],[-62.19,-65.61],[-61.7,-65.67],[-61.78,-65.73],[-61.41,-65.9],[-61.37,-65.96],[-61.46,-65.96],[-61.32,-66.06],[-60.53,-66.11],[-60.63,-66.3],[-60.26,-66.64],[-60.35,-66.82],[-60.07,-66.95],[-60.18,-67.06],[-60.72,-67.24],[-60.75,-67.33],[-61.17,-67.36],[-61.46,-67.57],[-61.52,-67.98],[-61.43,-68.46],[-61.12,-68.69],[-60.68,-68.88],[-60.73,-68.93],[-60.92,-68.91],[-60.72,-68.96],[-60.81,-68.99],[-60.65,-69.08],[-61.47,-69.55],[-61.7,-69.61],[-61.11,-70.07],[-61.13,-70.21],[-60.93,-70.11],[-60.7,-70.43],[-60.53,-70.49],[-60.67,-70.62],[-60.42,-70.72],[-60.68,-70.83],[-60.64,-70.93],[-60.77,-71.02],[-60.51,-71.1],[-60.6,-71.19],[-60.37,-71.44],[-60.5,-71.53],[-60.17,-71.86],[-60.29,-72.22],[-60.11,-72.32],[-60.11,-72.39],[-59.63,-72.59],[-59.7,-72.67],[-59.64,-72.73],[-59.9,-72.84],[-60,-72.97],[-59.9,-73.12],[-60.03,-73.22],[-59.98,-73.35],[-60.55,-73.48],[-60.6,-73.55],[-60.36,-73.5],[-60.51,-73.64],[-60.8,-73.71],[-60.68,-73.78],[-61,-74.07],[-60.8,-74.06],[-60.7,-74.19],[-61.04,-74.18],[-61.12,-74.26],[-60.89,-74.33],[-60.63,-74.23],[-60.72,-74.35],[-60.62,-74.37],[-60.67,-74.42],[-60.94,-74.49],[-60.95,-74.58],[-61.67,-74.76],[-61.68,-74.85],[-62.01,-75],[-61.13,-75.14],[-61.45,-74.99],[-61.32,-74.86],[-61.09,-74.87],[-59.77,-75.19],[-55.3,-75.96],[-53.84,-76.27],[-52.21,-76.83],[-51.36,-76.87],[-51.1,-77.01],[-50.09,-77.23],[-49.47,-77.6],[-49.12,-77.69],[-48.09,-77.84],[-48.17,-77.77],[-48.06,-77.77],[-47.44,-77.86],[-45.59,-77.93],[-44.1,-78.24],[-41.82,-77.92],[-41.45,-77.91],[-41.48,-78.05],[-41.22,-77.92],[-40.81,-77.97],[-40.77,-77.91],[-39.71,-78.07],[-35.62,-78.25],[-35.65,-78.17],[-35.33,-77.93],[-35.01,-77.9],[-35.2,-77.83],[-34.72,-77.81],[-34.78,-77.76],[-34.73,-77.71],[-34.37,-77.56],[-33.71,-77.39],[-32.58,-77.21],[-31.9,-77.23],[-31.87,-77.13],[-31.7,-77.06],[-30.69,-76.93],[-30.15,-76.71],[-29.63,-76.66],[-29.51,-76.58],[-28.86,-76.44],[-26.62,-76.18],[-26.65,-76.1],[-26.57,-76.04],[-26.84,-75.9],[-27.74,-75.72],[-27.18,-75.58],[-26.42,-75.54],[-26.16,-75.4],[-25.51,-75.27],[-25.38,-75.15],[-25.44,-75.1],[-25.28,-75.01],[-24.87,-75.11],[-24.94,-74.91],[-24.87,-74.89],[-25.37,-74.9],[-25.55,-74.71],[-25.79,-74.7],[-25.38,-74.56],[-25.55,-74.36],[-25.88,-74.26],[-25.75,-74.13],[-23.76,-73.94],[-23.66,-73.96],[-23.66,-74.08],[-23.31,-74.04],[-23.08,-74.22],[-22.7,-74.19],[-21.97,-74.43],[-22.13,-74.34],[-22.1,-74.3],[-21.84,-74.25],[-22.02,-74.18],[-21.07,-74.03],[-20.86,-73.76],[-20.57,-73.65],[-20.6,-73.57],[-20.41,-73.36],[-19.9,-73.14],[-19.93,-73.09],[-19.85,-73.05],[-19.58,-72.94],[-19.14,-73],[-19.4,-72.88],[-19.19,-72.79],[-18.38,-72.69],[-17.86,-72.75],[-17.71,-72.85],[-17.63,-72.79],[-17.73,-72.77],[-17.57,-72.75],[-17.75,-72.72],[-17.51,-72.63],[-16.49,-72.64],[-16.35,-72.57],[-16.42,-72.52],[-16.37,-72.5],[-15.51,-72.38],[-15.31,-72.27],[-13.41,-72.07],[-13.26,-72.14],[-12.9,-72.12],[-12.85,-72.1],[-12.92,-72.07],[-12.69,-72.01],[-12.97,-72],[-12.04,-71.8],[-12.34,-71.61],[-12.39,-71.53],[-12.32,-71.45],[-11.6,-71.38],[-11.44,-71.31],[-11.46,-71.25],[-10.83,-71.08],[-10.45,-71.12],[-9.98,-71.04],[-9.69,-70.86],[-8.75,-70.65],[-8.22,-70.62],[-8.09,-70.79],[-7.75,-70.81],[-7.44,-70.68],[-6.56,-70.53],[-6.34,-70.61],[-5.03,-70.45],[-4.51,-70.45],[-4.46,-70.52],[-3.52,-70.51],[-3.48,-70.6],[-3.21,-70.43],[-1.9,-70.3],[-1.59,-70.17],[-1.25,-70.19],[-1.5,-70.11],[-1.45,-70.02],[-1.67,-70.01],[-1.53,-69.96],[-1.52,-69.88],[-1.02,-69.73],[-0.23,-69.69],[0.07,-69.72],[0.16,-69.9],[0.34,-69.93],[0.49,-70.08],[1.48,-70.18],[1.87,-70.07],[2.23,-70.15],[2.44,-70.29],[3.71,-70.18],[4.11,-70.23],[4.06,-70.39],[5.34,-70.22],[5.43,-70.34],[5.64,-70.31],[5.51,-70.22],[5.66,-70.14],[6.39,-70.23],[7.2,-70.11],[7.42,-70.34],[7.86,-70.29],[8.02,-70.06],[8.11,-70.04],[9.07,-70.22],[10.21,-70.02],[10.99,-70.17],[10.98,-70.1],[11.29,-70.06],[11.75,-70.17],[11.95,-70.07],[12.34,-70.2],[12.79,-70.2],[12.97,-70.15],[12.85,-70.09],[12.87,-70.01],[13.25,-69.88],[13.27,-69.79],[13.59,-69.86],[13.78,-69.74],[13.75,-69.68],[14.81,-69.57],[15.51,-69.66],[15.36,-69.68],[15.57,-69.78],[15.37,-69.79],[15.55,-69.82],[15.58,-69.88],[15.49,-69.93],[15.61,-69.95],[16.08,-69.83],[17.35,-69.87],[17.69,-69.78],[19.08,-70.12],[19.3,-70.04],[20,-70.06],[19.59,-69.93],[20.2,-69.85],[21.28,-69.93],[21.93,-70.25],[23.02,-70.19],[23.15,-70.26],[23.66,-70.31],[23.79,-70.43],[24.32,-70.39],[24.64,-70.45],[24.6,-70.41],[24.71,-70.38],[24.62,-70.33],[24.89,-70.34],[24.8,-70.23],[24.91,-70.22],[24.79,-70.18],[25.13,-70.13],[25.81,-70.14],[25.82,-70.24],[25.5,-70.3],[25.89,-70.29],[25.92,-70.38],[26.27,-70.2],[26.68,-70.21],[26.37,-70.08],[26.45,-70.05],[27.7,-70.1],[28.14,-70.04],[27.95,-69.96],[28.4,-69.93],[28.49,-69.79],[28.71,-69.86],[29.25,-69.82],[29.35,-69.76],[29.27,-69.72],[29.33,-69.65],[29.25,-69.51],[29.92,-69.34],[29.76,-69.44],[30,-69.34],[30.47,-69.4],[30.51,-69.26],[30.71,-69.18],[31.33,-69.26],[31.6,-69.21],[32.58,-69.27],[32.51,-69.11],[32.57,-68.99],[33.17,-68.81],[33.59,-68.79],[34.73,-68.92],[34.79,-69.02],[34.92,-69.06],[34.96,-69.16],[34.89,-69.18],[34.98,-69.2],[35.16,-69.14],[35.66,-69.32],[35.76,-69.24],[36.55,-69.39],[36.83,-69.54],[36.34,-69.47],[36.53,-69.53],[36.53,-69.64],[36.38,-69.66],[36.52,-69.75],[36.86,-69.7],[37.05,-69.81],[37.17,-69.69],[37.77,-69.42],[38.12,-69.39],[38.2,-69.5],[37.93,-69.55],[38.13,-69.59],[38.25,-69.72],[38.19,-69.75],[38.38,-69.76],[38.28,-69.88],[38.3,-70.02],[38.51,-70.17],[38.5,-69.99],[38.77,-70],[38.75,-70.12],[38.88,-70.1],[39.2,-69.97],[39.1,-69.91],[39.14,-69.86],[39.73,-69.75],[39.68,-69.67],[39.74,-69.65],[39.53,-69.58],[39.76,-69.59],[39.85,-69.51],[39.61,-69.33],[39.81,-69.31],[39.69,-69.16],[39.94,-68.96],[40.87,-68.85],[41.05,-68.75],[41,-68.72],[42.28,-68.51],[42.86,-68.23],[44.44,-68.1],[44.84,-67.88],[45.39,-67.83],[45.69,-67.89],[45.85,-67.79],[46.21,-67.79],[46.35,-67.72],[46.22,-67.51],[46.39,-67.43],[46.99,-67.42],[46.96,-67.48],[47.44,-67.54],[47.61,-67.66],[47.53,-67.71],[47.65,-67.73],[48.43,-67.72],[48.62,-67.58],[49.17,-67.5],[49.31,-67.41],[48.81,-67.43],[48.43,-67.32],[48.33,-67.17],[49.2,-66.96],[49.38,-67.12],[49.82,-67.17],[50,-67.29],[50.78,-67.32],[50.95,-67.25],[50.51,-67.2],[50.52,-67.13],[50.42,-67.11],[50.78,-66.93],[50.22,-66.87],[50.22,-66.63],[50.42,-66.48],[51.36,-66.35],[51.43,-66.28],[52.06,-66.14],[53.8,-65.98],[55.21,-66.07],[55.61,-66.16],[56.34,-66.54],[56.75,-66.54],[57.25,-66.68],[57.3,-66.84],[56.8,-66.86],[56.63,-66.95],[56.71,-67.01],[56.54,-67.04],[56.97,-67.02],[56.85,-67.07],[57.04,-67.11],[56.93,-67.18],[57.21,-67.1],[58.05,-67.25],[58.26,-67.17],[58.28,-67.26],[58.44,-67.34],[58.97,-67.33],[59.07,-67.43],[58.85,-67.5],[59.1,-67.57],[59.14,-67.5],[59.47,-67.51],[59.64,-67.59],[59.72,-67.52],[60.47,-67.5],[61.06,-67.63],[61.41,-67.6],[61.35,-67.67],[61.4,-67.7],[62.05,-67.69],[62.63,-67.79],[63.54,-67.63],[64.79,-67.8],[67.1,-67.89],[68.34,-68.03],[68.91,-68.01],[69.27,-67.87],[69.57,-67.87],[69.68,-68.01],[69.6,-68.18],[69.65,-68.29],[70.08,-68.61],[70.25,-68.63],[70.39,-68.83],[70.88,-68.72],[71.04,-68.82],[71.4,-68.79],[71.49,-68.67],[71.8,-68.7],[72.12,-68.6],[72.83,-68.61],[72.91,-68.67],[72.77,-68.86],[72.47,-68.86],[72.78,-68.89],[73.14,-69.06],[72.95,-68.87],[73.23,-68.78],[73.51,-68.81],[73.85,-68.94],[74.13,-69.19],[74.51,-69.4],[74.55,-69.48],[74.47,-69.5],[73.75,-69.45],[74.38,-69.62],[73.72,-69.75],[73.71,-69.87],[74.83,-69.91],[75.12,-69.9],[74.97,-69.77],[75.13,-69.65],[75.5,-69.72],[75.89,-69.66],[76.11,-69.57],[76.02,-69.56],[76.08,-69.52],[76.51,-69.53],[76.69,-69.39],[77.88,-69.19],[77.96,-69.1],[77.93,-68.98],[78.13,-68.9],[77.88,-68.85],[77.85,-68.8],[78.08,-68.77],[77.89,-68.76],[78.03,-68.67],[78.52,-68.62],[78.09,-68.61],[78.4,-68.59],[78.78,-68.38],[79.23,-68.26],[81.22,-67.97],[81.37,-67.92],[81.31,-67.84],[81.35,-67.64],[81.73,-67.51],[81.7,-67.42],[83.29,-67.25],[83.34,-67.44],[83.76,-67.21],[84.42,-67.1],[84.05,-66.99],[84.33,-66.89],[83.88,-66.89],[83.94,-66.86],[83.83,-66.79],[84.52,-66.68],[85.07,-66.78],[85.08,-66.67],[85.2,-66.62],[85.95,-66.42],[87.32,-66.53],[88.65,-66.79],[88.57,-66.85],[88.87,-66.95],[89.54,-67.01],[90.45,-66.89],[91.08,-66.71],[91.4,-66.74],[91.95,-66.64],[92.72,-66.78],[93.01,-66.69],[93.69,-66.74],[93.85,-66.65],[94.16,-66.8],[94.35,-66.78],[94.94,-66.62],[94.95,-66.54],[94.8,-66.45],[94.84,-66.36],[95.39,-66.37],[95.56,-66.31],[95.47,-66],[95.53,-65.8],[95.4,-65.65],[95.55,-65.54],[95.51,-65.4],[95.84,-65.39],[95.91,-65.26],[96.3,-65.11],[96.81,-65.18],[96.89,-65.27],[97.05,-65.28],[97.11,-65.42],[96.77,-65.51],[96.46,-65.71],[96.88,-65.61],[96.96,-65.63],[96.88,-65.84],[97.97,-65.9],[98.61,-66.04],[98.42,-65.91],[98.47,-65.87],[98.4,-65.86],[98.48,-65.84],[98.3,-65.77],[98.44,-65.7],[99.12,-65.69],[99.4,-66.04],[99.57,-66.04],[99.65,-65.85],[100.25,-65.87],[100.31,-65.82],[100.27,-65.71],[100.43,-65.59],[100.75,-65.52],[101.15,-65.57],[101.26,-65.69],[101.68,-65.79],[101.82,-65.93],[102.49,-66.04],[102.94,-66.03],[103.04,-66],[103.15,-65.83],[102.89,-65.71],[103.08,-65.72],[103.2,-65.62],[103.12,-65.58],[103.12,-65.46],[102.78,-65.38],[102.77,-65.29],[102.91,-65.28],[103.15,-65.35],[103.18,-65.48],[103.42,-65.57],[103.59,-65.97],[103.64,-65.92],[103.55,-65.84],[103.59,-65.75],[103.66,-65.88],[103.88,-65.93],[103.9,-66.12],[104.02,-66.16],[106.75,-66.6],[108.02,-66.72],[108.32,-66.89],[108.6,-66.94],[108.77,-67.08],[109.51,-66.97],[109.57,-66.8],[109.77,-66.72],[110.12,-66.77],[110.53,-66.59],[110.69,-66.64],[110.72,-66.55],[110.5,-66.49],[110.52,-66.42],[110.94,-66.19],[113.18,-65.91],[114.23,-66.23],[114.3,-66.32],[114.51,-66.38],[114.36,-66.45],[114.48,-66.49],[114.42,-66.55],[114.48,-66.6],[115.06,-66.5],[115.08,-66.55],[114.68,-66.62],[115.6,-66.72],[115.76,-66.9],[115.86,-66.71],[116.5,-66.72],[116.6,-66.75],[116.54,-66.82],[116.62,-66.91],[117.7,-67.14],[118.65,-67.07],[119.57,-67.12],[120.31,-67],[120.7,-67.05],[121.2,-66.88],[121.13,-66.82],[121.24,-66.78],[121.93,-66.7],[122.3,-66.78],[122.46,-66.91],[122.38,-66.97],[123.16,-66.85],[123.48,-66.89],[124.31,-66.65],[124.51,-66.68],[124.59,-66.8],[124.78,-66.75],[124.74,-66.86],[124.79,-66.87],[124.82,-66.61],[125.04,-66.61],[124.97,-66.67],[124.99,-66.78],[125.14,-66.8],[125.37,-66.56],[126.21,-66.39],[126.81,-66.56],[126.85,-66.63],[127.38,-66.69],[127.66,-66.84],[127.57,-66.9],[127.67,-66.97],[127.63,-67.07],[127.84,-67.16],[128.26,-67.19],[128.61,-67.11],[128.9,-67.19],[129.31,-67.14],[129.3,-67.07],[129.52,-66.93],[129.52,-66.76],[129.97,-66.44],[130.17,-66.39],[130.14,-66.29],[130.23,-66.24],[131.81,-66.39],[132.42,-66.29],[132.81,-66.34],[133.46,-66.22],[134.14,-66.36],[134.68,-66.13],[134.94,-66.24],[135.36,-66.22],[135.6,-66.36],[135.69,-66.33],[135.65,-66.29],[136.14,-66.37],[136.55,-66.56],[136.79,-66.48],[137.44,-66.49],[138.33,-66.68],[139.58,-66.73],[139.93,-66.85],[140.04,-66.8],[140.12,-66.87],[140.93,-66.89],[141.35,-66.98],[141.86,-66.92],[142.5,-67.16],[143.54,-66.98],[143.81,-67.04],[143.95,-67.2],[144.53,-67.16],[144.67,-67.25],[144.66,-67.37],[144.78,-67.39],[144.85,-67.29],[145.16,-67.27],[145.89,-67.44],[145.32,-67.64],[146.19,-67.75],[146.52,-67.9],[146.48,-68],[146.9,-68.07],[147.26,-68.33],[147.3,-68.3],[147.17,-68.23],[147.74,-68.19],[148.16,-68.35],[148.15,-68.41],[147.69,-68.45],[147.74,-68.5],[148.09,-68.44],[148.25,-68.46],[148.1,-68.53],[148.26,-68.54],[148.55,-68.44],[148.76,-68.46],[148.7,-68.53],[148.88,-68.59],[149.45,-68.51],[149.47,-68.43],[149.94,-68.56],[151,-68.48],[151.09,-68.52],[151.07,-68.7],[151.49,-68.77],[151.9,-68.68],[151.93,-68.46],[153.13,-68.38],[153.38,-68.45],[153.46,-68.54],[153.89,-68.41],[154.65,-68.64],[155.38,-69.1],[155.72,-69.07],[155.96,-69.16],[156.21,-69.08],[156.53,-69.1],[156.62,-69.12],[156.56,-69.19],[156.64,-69.25],[156.8,-69.29],[156.88,-69.22],[156.94,-69.29],[157.16,-69.27],[157.12,-69.22],[157.31,-69.19],[157.51,-69.38],[157.62,-69.31],[157.99,-69.3],[158.52,-69.49],[159.15,-69.45],[159.15,-69.52],[159.76,-69.66],[160.21,-69.86],[160.36,-69.94],[160.32,-69.99],[160.58,-70],[160.59,-70.06],[160.33,-70.13],[160.8,-70.24],[161.08,-70.43],[161.21,-70.37],[161.14,-70.29],[161.57,-70.26],[161.68,-70.39],[161.93,-70.42],[161.96,-70.54],[162.08,-70.44],[162.68,-70.4],[162.79,-70.53],[162.96,-70.54],[162.82,-70.57],[163.14,-70.67],[163.15,-70.75],[163.33,-70.83],[163.39,-70.76],[163.81,-70.76],[163.59,-70.64],[163.65,-70.59],[163.97,-70.68],[164.16,-70.61],[165.28,-70.68],[165.79,-70.79],[165.76,-70.83],[166.3,-70.71],[166.76,-70.75],[166.84,-70.79],[166.8,-70.83],[166.44,-70.87],[167.71,-70.91],[167.9,-71.05],[167.79,-71.13],[168.24,-71.3],[168.85,-71.37],[169.49,-71.62],[169.78,-71.62],[170.19,-71.79],[170.35,-71.66],[170.21,-71.41],[170.28,-71.42],[170.7,-71.82],[170.98,-71.96],[170.5,-72.13],[170.05,-72.16],[170.08,-72.23],[169.99,-72.3],[169.76,-72.34],[170.01,-72.4],[169.81,-72.54],[170.27,-72.43],[170.28,-72.7],[170.16,-72.73],[170.2,-72.77],[170.13,-72.82],[169.86,-72.8],[169.91,-72.88],[169.63,-73.06],[169.62,-73.18],[169.23,-73.25],[169.23,-73.38],[169.02,-73.38],[169.14,-73.43],[169.01,-73.48],[169.21,-73.56],[168.98,-73.62],[168.64,-73.48],[168.58,-73.66],[168.28,-73.71],[168.03,-73.64],[168.13,-73.57],[168.1,-73.51],[167.61,-73.46],[167.76,-73.54],[167.62,-73.63],[167.22,-73.67],[167.11,-73.61],[166.98,-73.7],[166.56,-73.7],[166.52,-73.77],[166.79,-73.85],[165.63,-73.9],[166.04,-73.99],[165.8,-73.97],[165.67,-74],[165.73,-74.04],[166.31,-74.1],[166.26,-74.19],[165.34,-74.12],[165.07,-74.16],[165.14,-74.25],[165.05,-74.27],[164.81,-74.19],[164.89,-74.23],[164.84,-74.31],[165.06,-74.36],[165.25,-74.56],[165.49,-74.6],[165.44,-74.74],[165.24,-74.65],[164.49,-74.67],[164.52,-74.78],[164.06,-74.72],[164.03,-74.79],[164.12,-74.84],[163.98,-74.88],[164.05,-74.9],[163.95,-74.98],[163.73,-74.97],[163.66,-75.22],[163.24,-75.31],[162.71,-75.27],[162.56,-75.33],[163.6,-75.3],[163.58,-75.35],[163.83,-75.39],[165.36,-75.49],[165.44,-75.59],[165.35,-75.66],[162.59,-75.51],[162.8,-75.63],[162.84,-75.56],[163.04,-75.57],[162.83,-75.78],[163.01,-75.85],[162.83,-75.86],[162.89,-75.93],[162.74,-75.98],[163.02,-76.03],[162.69,-76.03],[162.73,-76.16],[162.33,-76.19],[163.11,-76.23],[163.02,-76.3],[162.52,-76.31],[162.79,-76.33],[162.71,-76.45],[162.89,-76.53],[162.73,-76.63],[162.9,-76.66],[162.63,-76.69],[162.68,-76.74],[163.02,-76.82],[162.88,-76.94],[162.63,-76.9],[162.52,-76.96],[162.56,-77.01],[162.35,-77.03],[162.47,-77.1],[163.13,-77.12],[163.54,-77.38],[163.54,-77.45],[163.86,-77.57],[163.51,-77.64],[163.67,-77.73],[162.54,-77.89],[164.21,-77.73],[164.51,-77.81],[164.48,-77.91],[164.57,-77.99],[164.52,-78.09],[165.01,-78.05],[165.05,-77.97],[165.56,-77.88],[166.74,-77.99],[166.83,-77.96],[166.78,-77.93],[166.64,-77.92],[166.91,-77.78],[166.53,-77.78],[166.94,-77.76],[166.41,-77.72],[166.14,-77.62],[166.68,-77.44],[166.36,-77.32],[166.71,-77.25],[167.06,-77.29],[167.13,-77.43],[167.55,-77.49],[172.6,-77.49],[175.6,-77.58],[177.45,-77.8],[180,-77.83],[180,-85.03],[179,-85.08],[-180,-85.08],[-180,-77.83],[-179.06,-77.82],[-177.34,-77.96],[-176.71,-78.06],[-176.76,-78.11],[-176.71,-78.16],[-176.8,-78.2],[-177.18,-78.2],[-176.36,-78.25],[-172.85,-78.41],[-166.97,-78.51],[-164.98,-78.61],[-163.93,-78.72],[-164.37,-78.78],[-163.6,-78.8],[-162.56,-78.46],[-161.12,-78.29],[-160.25,-78.11],[-158.64,-77.96],[-158.13,-77.64],[-158.3,-77.6],[-158.16,-77.49],[-158.34,-77.41],[-158.18,-77.28],[-158.33,-77.21],[-158.22,-77.16],[-157.88,-77.15],[-157.02,-77.45],[-156.52,-77.34],[-156.48,-77.3],[-156.64,-77.24],[-156.39,-77.16],[-155.64,-77.18],[-155.68,-77.11],[-155.58,-77.09],[-155.3,-77.22],[-154.26,-77.15],[-153.09,-77.29],[-153.17,-77.35],[-152.92,-77.35],[-153.02,-77.28],[-152.6,-77.28],[-152.59,-77.36],[-152.14,-77.47],[-151.69,-77.47],[-152.04,-77.39],[-151.93,-77.33],[-151.52,-77.37],[-151.16,-77.29],[-151.39,-77.26],[-151.23,-77.2],[-151.5,-77.2],[-151.73,-77.09],[-151.14,-77.02],[-150.88,-77.09],[-150.12,-76.96],[-150.85,-76.84],[-150.53,-76.67],[-150.61,-76.61],[-149.62,-76.52],[-149.71,-76.45],[-149.61,-76.4],[-148.97,-76.36],[-148.3,-76.15],[-148.21,-76.05],[-148.42,-75.83],[-147.66,-75.8],[-147.32,-75.91],[-147.15,-75.89],[-147.21,-75.8],[-146.97,-75.73],[-144.43,-75.44],[-142.67,-75.48],[-141.86,-75.6],[-142.01,-75.49],[-141.51,-75.46],[-141.3,-75.5],[-141.31,-75.59],[-140.98,-75.59],[-140.9,-75.47],[-140.09,-75.26],[-140.07,-75.18],[-139.68,-75.27],[-139.11,-75.15],[-138.6,-75.22],[-137.02,-75.12],[-136.81,-75.05],[-136.87,-74.97],[-136.82,-74.86],[-135.98,-74.82],[-135.46,-74.67],[-134.66,-74.71],[-134.49,-74.63],[-132.56,-74.48],[-132.16,-74.52],[-131.82,-74.42],[-131.08,-74.53],[-130.19,-74.43],[-129.55,-74.48],[-128.19,-74.41],[-127.57,-74.2],[-127.35,-73.94],[-127.15,-73.84],[-127.26,-73.79],[-127.18,-73.7],[-127.47,-73.65],[-127.46,-73.5],[-126.92,-73.39],[-126.09,-73.4],[-125.59,-73.54],[-125.61,-73.63],[-125.51,-73.67],[-124.66,-73.78],[-124.12,-73.95],[-123.24,-73.92],[-123.29,-73.88],[-123.11,-73.78],[-122.35,-73.77],[-120.57,-73.86],[-120.02,-73.95],[-119.16,-73.88],[-118.89,-73.94],[-119,-74.04],[-117.34,-74.17],[-116.39,-73.96],[-115.9,-74.17],[-115.34,-74.23],[-115.13,-74.21],[-114.81,-74.04],[-114.21,-73.97],[-113.81,-74.13],[-113.56,-74.13],[-113.41,-74.27],[-113.11,-74.31],[-111.66,-74.27],[-110.87,-74.39],[-110.62,-74.34],[-110.2,-74.48],[-110.11,-74.67],[-110.18,-74.71],[-110.15,-74.76],[-109.45,-74.83],[-109.34,-74.89],[-109.47,-74.96],[-108.94,-75.08],[-109.49,-75.21],[-109.36,-75.31],[-109.07,-75.34],[-107.55,-75.3],[-107.57,-75.2],[-107.67,-75.17],[-107.53,-75.07],[-107.93,-74.96],[-107.86,-74.95],[-107.95,-74.87],[-106.63,-74.69],[-106.63,-74.88],[-106.72,-74.95],[-106.51,-74.99],[-106.37,-74.92],[-106.32,-74.95],[-106.38,-75.03],[-106.25,-75.01],[-106.36,-75.24],[-106.11,-75.2],[-106.14,-75.15],[-105.96,-75.01],[-106.06,-74.98],[-106.01,-74.95],[-105.56,-74.89],[-105.21,-75.05],[-104.24,-75.2],[-101.65,-75.2],[-101.94,-75.12],[-101.51,-74.84],[-101.21,-74.82],[-102.42,-74.59],[-101.42,-74.38],[-101.34,-74.34],[-101.38,-74.26],[-101.56,-74.11],[-102.87,-74.01],[-102.92,-73.97],[-102.81,-73.81],[-103,-73.78],[-102.99,-73.7],[-101.73,-73.78],[-101.36,-73.73],[-101.67,-73.62],[-101.7,-73.55],[-101.63,-73.52],[-101.69,-73.44],[-102.74,-73.43],[-103.31,-73.25],[-103.24,-73.18],[-103.42,-72.94],[-103.29,-72.86],[-102.79,-72.81],[-102.68,-72.58],[-103.39,-72.4],[-102.11,-72.3],[-102.33,-72.17],[-101.84,-72.05],[-100.54,-72.03],[-100.17,-71.94],[-99.92,-72.02],[-99.17,-72.03],[-98.77,-71.85],[-97.85,-72.01],[-96.22,-71.97],[-96.06,-72.09],[-95.59,-72.18],[-95.66,-72.22],[-95.51,-72.27],[-95.5,-72.41],[-95.41,-72.46],[-95.58,-72.58],[-95.08,-72.69],[-94.54,-72.59],[-94.27,-72.73],[-94.19,-72.64],[-93.39,-72.7],[-92.99,-72.65],[-92.48,-72.77],[-91.1,-72.65],[-90.83,-72.69],[-90.69,-72.87],[-90.19,-72.71],[-90.04,-72.57],[-89.83,-72.56],[-89.9,-72.62],[-89.8,-72.71],[-88.24,-72.81],[-88.02,-72.96],[-86.57,-73.04],[-85.83,-73.16],[-85.77,-73.2],[-85.82,-73.27],[-85.36,-73.34],[-85.47,-73.51],[-85.11,-73.62],[-83.74,-73.66],[-83.81,-73.76],[-83.74,-73.81],[-82.93,-73.81],[-82.08,-73.99],[-81.14,-73.8],[-81.08,-73.7],[-81.34,-73.58],[-81.3,-73.38],[-80.33,-73.41],[-80.66,-73.17],[-80.54,-73.06],[-79.68,-73.14],[-78.73,-73.5],[-78.2,-73.45],[-78.33,-73.32],[-78.05,-73.24],[-77.63,-73.34],[-77.63,-73.41],[-77.29,-73.4],[-77.38,-73.36],[-77.28,-73.28],[-77.48,-73.27],[-77.38,-73.09],[-78.23,-73.09],[-78.84,-73.23],[-79.33,-73.05],[-79.31,-72.98],[-78.68,-72.86],[-78.85,-72.68],[-79.29,-72.58],[-79.19,-72.45],[-78.95,-72.41],[-78.52,-72.48],[-78.32,-72.61],[-77.45,-72.53],[-77.32,-72.6],[-77.34,-72.7],[-77.23,-72.73],[-76.54,-72.64],[-76.42,-72.71],[-76.52,-72.79],[-76.21,-72.81],[-75.84,-72.98],[-75.41,-72.92],[-74.42,-73.01],[-74.24,-73.06],[-74.32,-73.17],[-74.26,-73.21],[-73.34,-73.24],[-73.07,-73.16],[-72.49,-73.27],[-71.66,-73.28],[-72.07,-73.11],[-72.12,-73],[-72.39,-73.03],[-72.46,-72.88],[-72.31,-72.78],[-72.85,-72.69],[-73.17,-72.55],[-72.72,-72.38],[-73.01,-72.32],[-73.07,-72.24],[-73.59,-72.14],[-74.13,-72.28],[-74.39,-72.14],[-74.75,-72.19],[-75.41,-72.01],[-75.41,-71.92],[-75.16,-71.88],[-75.4,-71.75],[-75.09,-71.65],[-74.45,-71.7],[-74.4,-71.63],[-74.44,-71.56],[-74.36,-71.52],[-73.88,-71.52],[-73.07,-71.38],[-73.01,-71.32],[-73.13,-71.26],[-72.91,-71.18],[-73.25,-71.1],[-73.25,-70.96],[-73.59,-70.88],[-74.47,-71.11],[-76.27,-71.25],[-76.49,-71.18],[-76.52,-71.07],[-75.96,-70.94],[-75.21,-70.9],[-74.96,-70.71],[-74.58,-70.82],[-74.42,-70.69],[-73.65,-70.71],[-72.78,-70.56],[-72.43,-70.4],[-72.57,-70.28],[-72.44,-70.17],[-72.55,-70.13],[-72.29,-69.98],[-72.47,-69.83],[-72.79,-69.78],[-72.97,-69.61],[-72.58,-69.55],[-72.39,-69.59],[-72.2,-69.7],[-72.25,-69.73],[-71.76,-69.8],[-71.66,-69.53],[-72.02,-69.44],[-72.21,-69.21],[-71.59,-68.98],[-70.44,-68.91],[-70.14,-69],[-69.99,-69.22],[-70.1,-69.25],[-70.02,-69.29],[-70.11,-69.4],[-69.75,-69.4],[-69.53,-69.58],[-69.48,-69.7],[-69.32,-69.76],[-69.29,-70.04],[-69.09,-70.25],[-68.45,-70.23],[-68.5,-70.06],[-68.38,-70],[-68.42,-69.89],[-68.33,-69.83],[-68.84,-69.53],[-68.34,-69.53],[-68.29,-69.47],[-68.35,-69.44],[-68.27,-69.41],[-67.59,-69.52],[-66.88,-69.33],[-66.96,-69.24],[-66.88,-69.2],[-66.96,-69.17],[-66.85,-69.11],[-67.25,-69.08],[-67.49,-68.97],[-66.98,-68.9],[-67.02,-68.76],[-67.2,-68.64],[-66.95,-68.59],[-66.94,-68.48],[-67.14,-68.48],[-67.18,-68.41],[-66.79,-68.45],[-66.62,-68.37],[-66.94,-68.36],[-67.21,-68.21],[-67.08,-68.18],[-67.29,-68.09],[-66.85,-68.05],[-66.9,-67.97],[-66.76,-67.91],[-67.09,-67.91],[-66.72,-67.85],[-66.97,-67.82],[-66.77,-67.72],[-66.61,-67.74],[-66.49,-67.63],[-67.64,-67.68],[-67.54,-67.64],[-67.66,-67.62],[-67.5,-67.46],[-67.58,-67.42],[-67.46,-67.33],[-67.58,-67.33],[-67.51,-67.19],[-67.31,-67.25],[-67.23,-67.1],[-67.13,-67.16],[-67.07,-67.13],[-67.12,-67.07],[-66.91,-67.09],[-66.94,-67.35],[-66.61,-67.37],[-66.5,-67.48],[-66.45,-67.3],[-66.52,-67.25],[-66.41,-67.22],[-66.61,-67.18],[-66.41,-67.04],[-66.59,-66.94],[-66.54,-66.78],[-66.13,-66.73],[-65.73,-66.88],[-65.65,-66.79],[-65.78,-66.75],[-65.67,-66.73],[-65.74,-66.72],[-65.66,-66.66],[-65.69,-66.57],[-65.55,-66.54],[-65.87,-66.45],[-65.7,-66.4],[-65.62,-66.24],[-65.46,-66.32],[-65.16,-66.33],[-65.09,-66.29],[-65.33,-66.19],[-65.32,-66.11],[-65.09,-66.14],[-64.94,-66.07],[-64.57,-66.18],[-64.45,-66.11],[-64.7,-65.98],[-64.64,-65.88],[-64.35,-65.94],[-64.34,-65.86],[-64.48,-65.77],[-64.04,-65.83],[-64.22,-65.7],[-64.12,-65.66],[-63.77,-65.76],[-63.83,-65.68],[-63.69,-65.65],[-64.09,-65.57],[-63.98,-65.53],[-64.12,-65.43],[-64.03,-65.42],[-64.09,-65.32],[-63.94,-65.29],[-64,-65.26],[-63.91,-65.21],[-63.24,-65.23],[-63.26,-65.34],[-63.08,-65.31],[-62.98,-65.27],[-63,-65.17],[-63.26,-65.1],[-62.84,-65.06],[-62.82,-64.95],[-62.61,-65.06],[-62.4,-65.03],[-62.7,-64.92],[-62.55,-64.91],[-62.58,-64.82],[-62.47,-64.74],[-62.3,-64.81],[-62.39,-64.87],[-62.29,-64.92],[-61.93,-64.82],[-61.97,-64.76],[-61.83,-64.74],[-61.81,-64.64],[-61.7,-64.79],[-61.55,-64.8],[-61.61,-64.68],[-61.44,-64.64],[-61.58,-64.61],[-61.56,-64.56],[-61.11,-64.55],[-61.11,-64.46],[-60.93,-64.43],[-60.97,-64.32],[-60.84,-64.3],[-61.02,-64.21],[-60.76,-64.24],[-60.72,-64.17],[-60.32,-64.07],[-59.95,-64.1],[-59.94,-64.02],[-59.82,-64],[-59.85,-63.93],[-59.76,-63.95],[-59.78,-64.01],[-59.42,-64.06],[-59.44,-63.98],[-59.33,-63.94],[-59.39,-63.88],[-58.94,-63.83],[-58.94,-63.7],[-58.16,-63.63],[-58.11,-63.57],[-58.18,-63.54],[-58.03,-63.57],[-57.88,-63.47],[-57.3,-63.37]]],[[[-56.62,-63.3],[-56.59,-63.36],[-56.7,-63.36],[-56.62,-63.3]]],[[[-55.61,-63.27],[-55.45,-63.36],[-55.05,-63.39],[-55.05,-63.48],[-55.17,-63.52],[-55.89,-63.45],[-56.34,-63.59],[-56.56,-63.53],[-56.19,-63.33],[-55.61,-63.27]]],[[[-56.49,-63.13],[-56.03,-63.2],[-56.31,-63.34],[-56.62,-63.21],[-56.49,-63.13]]],[[[-60.63,-63.05],[-60.5,-63.12],[-60.66,-63.07],[-60.7,-63.13],[-60.56,-63.17],[-60.72,-63.15],[-60.74,-63.08],[-60.63,-63.05]]],[[[-62.31,-63.03],[-62.71,-63.24],[-62.53,-63.07],[-62.31,-63.03]]],[[[-61.32,-62.86],[-61.23,-62.88],[-61.39,-62.99],[-61.52,-62.93],[-61.32,-62.86]]],[[[-61.28,-62.78],[-61.22,-62.78],[-61.29,-62.8],[-61.28,-62.78]]],[[[-60.14,-62.61],[-60.01,-62.68],[-60.1,-62.71],[-60.06,-62.77],[-59.81,-62.77],[-60.31,-62.92],[-60.32,-62.83],[-60.43,-62.88],[-60.36,-62.76],[-61.15,-62.83],[-61.18,-62.73],[-60.86,-62.75],[-60.79,-62.63],[-60.69,-62.72],[-60.33,-62.72],[-60.14,-62.61]]],[[[-59.81,-62.6],[-59.55,-62.66],[-59.72,-62.71],[-60,-62.61],[-59.81,-62.6]]],[[[-59.62,-62.48],[-59.34,-62.56],[-59.51,-62.62],[-59.69,-62.55],[-59.62,-62.48]]],[[[-59.05,-62.39],[-58.84,-62.47],[-59.21,-62.47],[-59.05,-62.39]]],[[[-57.68,-62.06],[-57.63,-62.18],[-58.2,-62.21],[-58.13,-62.32],[-58.28,-62.35],[-58.4,-62.29],[-58.28,-62.24],[-58.44,-62.22],[-58.64,-62.34],[-58.48,-62.31],[-58.42,-62.37],[-58.47,-62.39],[-58.78,-62.4],[-58.83,-62.32],[-59.02,-62.39],[-58.71,-62.18],[-58.41,-62.1],[-57.68,-62.06]]],[[[-55.66,-61.62],[-55.5,-61.64],[-55.7,-61.64],[-55.66,-61.62]]],[[[-55.93,-61.62],[-55.88,-61.63],[-55.91,-61.64],[-55.93,-61.62]]],[[[-54.01,-61.29],[-54.06,-61.45],[-54.23,-61.46],[-54.01,-61.29]]],[[[-55.36,-61.22],[-54.64,-61.28],[-55.03,-61.33],[-55.25,-61.44],[-55.46,-61.27],[-55.36,-61.22]]],[[[-45.62,-60.84],[-45.61,-60.89],[-45.67,-60.89],[-45.62,-60.84]]],[[[-44.54,-60.83],[-44.48,-60.86],[-44.52,-60.9],[-44.73,-60.9],[-44.54,-60.83]]],[[[-45.07,-60.79],[-45.02,-60.89],[-45.08,-60.86],[-45.07,-60.79]]],[[[-45.7,-60.68],[-45.16,-60.84],[-45.2,-60.9],[-45.71,-60.82],[-45.79,-60.74],[-46,-60.8],[-45.92,-60.69],[-45.7,-60.68]]]]},"properties":{"NAM_0":"Antarctica"}},{"type":"Feature","geometry":{"type":"MultiPolygon","coordinates":[[[[35.71,4.62],[35.78,4.68],[35.78,4.63],[35.71,4.62]]],[[[35.71,4.62],[34.38,4.62],[35.41,5.03],[35.39,4.92],[35.56,4.92],[35.52,4.76],[35.6,4.62],[35.71,4.62]]]]},"properties":{"NAM_0":"Ilemi Triangle"}},{"type":"Feature","geometry":{"type":"Polygon","coordinates":[[[88.92,27.33],[89.01,27.33],[88.99,27.49],[89.13,27.61],[89.15,27.32],[88.99,27.21],[88.92,27.33]]]},"properties":{"NAM_0":null}},{"type":"Feature","geometry":{"type":"Polygon","coordinates":[[[91.11,27.85],[90.8,28.04],[91.19,27.99],[91.11,27.85]]]},"properties":{"NAM_0":null}}]}